NORAD_CAT_ID,OBJECT_NAME,OBJECT_TYPE,EPOCH,MEAN_MOTION,ECCENTRICITY,INCLINATION,RA_OF_ASC_NODE,ARG_OF_PERICENTER,MEAN_ANOMALY,BSTAR,MEAN_MOTION_DOT,MEAN_MOTION_DDOT,TLE_LINE0,TLE_LINE1,TLE_LINE2,SEMIMAJOR_AXIS,PERIOD,APOGEE,PERIGEE,DECAYED
53557.0,STARLINK-4502,PAYLOAD,2022-11-18 10:29:51,15.08828582,0.000199,53.2202,83.6752,37.9007,322.2125,-1.7056e-05,-5.6e-06,0.0,0 STARLINK-4502,1 53557U 22101AG  22322.43740311 -.00000560  00000-0 -17056-4 0  9991,2 53557  53.2202  83.6752 0001990  37.9007 322.2125 15.08828582 14703,6917.915,95.438,541.1569999999998,538.404,0.0
53557.0,STARLINK-4502,PAYLOAD,2022-11-18 15:16:00,15.088322,0.0001985,53.2202,82.78299999999999,36.4169,323.6958,1.0827e-05,-1.16e-06,0.0,0 STARLINK-4502,1 53557U 22101AG  22322.63612122 -.00000116  00000-0  10827-4 0  9996,2 53557  53.2202  82.7830 0001985  36.4169 323.6958 15.08832200 14731,6917.904,95.438,541.1419999999998,538.396,0.0
53557.0,STARLINK-4502,PAYLOAD,2022-11-19 07:09:53,15.08821294,0.0001751999999999,53.2202,79.8089,45.4866,314.6269,3.9348e-05,3.38e-06,0.0,0 STARLINK-4502,1 53557U 22101AG  22323.29853230  .00000338  00000-0  39348-4 0  9990,2 53557  53.2202  79.8089 0001752  45.4866 314.6269 15.08821294 14185,6917.938,95.439,541.015,538.591,0.0
53557.0,STARLINK-4502,PAYLOAD,2022-11-19 10:20:39,15.08824415,0.0001786,53.2204,79.2152,44.8866,315.2270000000001,5.5606e-05,5.97e-06,0.0,0 STARLINK-4502,1 53557U 22101AG  22323.43101115  .00000597  00000-0  55606-4 0  9996,2 53557  53.2204  79.2152 0001786  44.8866 315.2270 15.08824415 14853,6917.928000000001,95.439,541.029,538.557,0.0
53557.0,STARLINK-4502,PAYLOAD,2022-11-20 02:14:30,15.08835758,0.0001726,53.2207,76.2418,44.6343,315.4788,7.4039e-05,8.900000000000001e-06,0.0,0 STARLINK-4502,1 53557U 22101AG  22324.09340719  .00000890  00000-0  74039-4 0  9991,2 53557  53.2207  76.2418 0001726  44.6343 315.4788 15.08835758 14308,6917.893,95.438,540.952,538.564,0.0
53557.0,STARLINK-4502,PAYLOAD,2022-11-20 13:22:11,15.08841158,0.0001834,53.2207,74.1604,44.9076,315.2065,0.00022295,3.262e-05,0.0,0 STARLINK-4502,1 53557U 22101AG  22324.55708319  .00003262  00000-0  22295-3 0  9998,2 53557  53.2207  74.1604 0001834  44.9076 315.2065 15.08841158 15025,6917.877,95.437,541.011,538.4730000000002,0.0
53557.0,STARLINK-4502,PAYLOAD,2022-11-20 16:32:58,15.08846942,0.0001838,53.2207,73.5657,45.9242,314.1901,0.00026087,3.867e-05,0.0,0 STARLINK-4502,1 53557U 22101AG  22324.68956026  .00003867  00000-0  26087-3 0  9996,2 53557  53.2207  73.5657 0001838  45.9242 314.1901 15.08846942 14398,6917.859,95.437,540.996,538.453,0.0
53557.0,STARLINK-4502,PAYLOAD,2022-11-21 00:29:54,15.08843452,0.0001964,53.2198,72.0784,45.7051,314.4102,0.00054167,8.344e-05,0.0,0 STARLINK-4502,1 53557U 22101AG  22325.02076584  .00008344  00000-0  54167-3 0  9992,2 53557  53.2198  72.0784 0001964  45.7051 314.4102 15.08843452 14443,6917.87,95.437,541.094,538.376,0.0
53557.0,STARLINK-4502,PAYLOAD,2022-11-21 11:37:35,15.08848205,0.0002025,53.2195,69.997,45.6038,314.512,0.00022483,3.293e-05,0.0,0 STARLINK-4502,1 53557U 22101AG  22325.48444237  .00003293  00000-0  22483-3 0  9990,2 53557  53.2195  69.9970 0002025  45.6038 314.5120 15.08848205 15167,6917.855,95.437,541.121,538.319,0.0
53557.0,STARLINK-4502,PAYLOAD,2022-11-21 16:23:45,15.08851278,0.0001969,53.2198,69.1051,45.5466,314.5687,0.00027329,4.065e-05,0.0,0 STARLINK-4502,1 53557U 22101AG  22325.68315985  .00004065  00000-0  27329-3 0  9991,2 53557  53.2198  69.1051 0001969  45.5466 314.5687 15.08851278 15197,6917.846,95.437,541.073,538.349,0.0
53557.0,STARLINK-4502,PAYLOAD,2022-11-22 01:56:03,15.08856289,0.0001928,53.2194,67.3208,44.2459,315.8687,0.00018664,2.685e-05,0.0,0 STARLINK-4502,1 53557U 22101AG  22326.08059392  .00002685  00000-0  18664-3 0  9991,2 53557  53.2194  67.3208 0001928  44.2459 315.8687 15.08856289 14606,6917.831,95.437,541.029,538.362,0.0
53557.0,STARLINK-4502,PAYLOAD,2022-11-22 13:03:44,15.08855819,0.0001829,53.2198,65.2392,44.4603,315.6536,0.0001734,2.474e-05,0.0,0 STARLINK-4502,1 53557U 22101AG  22326.54427078  .00002474  00000-0  17340-3 0  9998,2 53557  53.2198  65.2392 0001829  44.4603 315.6536 15.08855819 15323,6917.831999999999,95.437,540.962,538.432,0.0
53557.0,STARLINK-4502,PAYLOAD,2022-11-23 03:22:13,15.0884106,0.0001764,53.2202,62.5626,44.0243,316.0889,-8.6065e-05,-1.658e-05,0.0,0 STARLINK-4502,1 53557U 22101AG  22327.14043386 -.00001658  00000-0 -86065-4 0  9997,2 53557  53.2202  62.5626 0001764  44.0243 316.0889 15.08841060 14769,6917.877,95.437,540.962,538.5219999999998,0.0
53557.0,STARLINK-4502,PAYLOAD,2022-11-23 12:54:33,15.08833512,0.0001887,53.221,60.7792,45.6968,314.4179,-5.5906e-05,-1.178e-05,0.0,0 STARLINK-4502,1 53557U 22101AG  22327.53788482 -.00001178  00000-0 -55906-4 0  9990,2 53557  53.2210  60.7792 0001887  45.6968 314.4179 15.08833512 14823,6917.9,95.438,541.071,538.46,0.0
53557.0,STARLINK-4502,PAYLOAD,2022-11-24 09:34:33,15.088414300000002,0.0001848,53.2212,56.9141,41.7763,318.3371,8.352e-05,1.041e-05,0.0,0 STARLINK-4502,1 53557U 22101AG  22328.39899500  .00001041  00000-0  83520-4 0  9999,2 53557  53.2212  56.9141 0001848  41.7763 318.3371 15.08841430 15609,6917.876,95.437,541.019,538.4630000000002,0.0
53557.0,STARLINK-4502,PAYLOAD,2022-11-24 11:09:56,15.08844961,0.0001908,53.2211,56.6172,41.56399999999999,318.5497,6.151899999999999e-05,6.91e-06,0.0,0 STARLINK-4502,1 53557U 22101AG  22328.46523351  .00000691  00000-0  61519-4 0  9999,2 53557  53.2211  56.6172 0001908  41.5640 318.5497 15.08844961 14969,6917.865,95.437,541.05,538.41,0.0
53557.0,STARLINK-4502,PAYLOAD,2022-11-24 12:45:19,15.08846333,0.0001806,53.2211,56.3194,45.4644,314.6495,7.8549e-05,9.62e-06,0.0,0 STARLINK-4502,1 53557U 22101AG  22328.53147169  .00000962  00000-0  78549-4 0  9998,2 53557  53.2211  56.3194 0001806  45.4644 314.6495 15.08846333 15628,6917.861,95.437,540.975,538.477,0.0
53557.0,STARLINK-4502,PAYLOAD,2022-11-25 12:36:06,15.08844553,0.0002311,53.2207,51.8601,31.5365,328.5765,0.00013246,1.821e-05,0.0,0 STARLINK-4502,1 53557U 22101AG  22329.52507204  .00001821  00000-0  13246-3 0  9995,2 53557  53.2207  51.8601 0002311  31.5365 328.5765 15.08844553 15776,6917.866,95.437,541.33,538.133,0.0
53557.0,STARLINK-4502,PAYLOAD,2022-11-25 22:08:25,15.08837557,0.0001989,53.221,50.0758,38.2156,321.8977,7.4792e-05,9.02e-06,0.0,0 STARLINK-4502,1 53557U 22101AG  22329.92251861  .00000902  00000-0  74792-4 0  9997,2 53557  53.2210  50.0758 0001989  38.2156 321.8977 15.08837557 15188,6917.888000000001,95.438,541.129,538.377,0.0
53557.0,STARLINK-4502,PAYLOAD,2022-11-26 12:26:52,15.08849458,0.0002001,53.221,47.3991,40.5374,319.5767,0.00010484,1.381e-05,0.0,0 STARLINK-4502,1 53557U 22101AG  22330.51866891  .00001381  00000-0  10484-3 0  9998,2 53557  53.2210  47.3991 0002001  40.5374 319.5767 15.08849458 15926,6917.851,95.437,541.101,538.332,0.0
53557.0,STARLINK-4502,PAYLOAD,2022-11-26 23:34:35,15.08844066,0.0002066,53.2208,45.3179,39.5564,320.5579,3.0426e-05,1.96e-06,0.0,0 STARLINK-4502,1 53557U 22101AG  22330.98235265  .00000196  00000-0  30426-4 0  9996,2 53557  53.2208  45.3179 0002066  39.5564 320.5579 15.08844066 15348,6917.868,95.437,541.1619999999998,538.304,0.0
53557.0,STARLINK-4502,PAYLOAD,2022-11-27 07:31:31,15.08834733,0.0001989,53.2209,43.8313,42.0103,318.1041,-1.215e-05,-4.82e-06,0.0,0 STARLINK-4502,1 53557U 22101AG  22331.31355930 -.00000482  00000-0 -12150-4 0  9990,2 53557  53.2209  43.8313 0001989  42.0103 318.1041 15.08834733 15395,6917.896,95.438,541.137,538.386,0.0
53557.0,STARLINK-4502,PAYLOAD,2022-11-27 12:17:40,15.08835481,0.0001979,53.2211,42.9392,41.24800000000001,318.8661,-1.0194e-05,-4.5e-06,0.0,0 STARLINK-4502,1 53557U 22101AG  22331.51227833 -.00000450  00000-0 -10194-4 0  9993,2 53557  53.2211  42.9392 0001979  41.2480 318.8661 15.08835481 16075,6917.894,95.438,541.128,538.39,0.0
53557.0,STARLINK-4502,PAYLOAD,2022-11-28 10:33:04,15.08838736,0.0001855,53.2214,38.7761,49.3005,310.8148,-4.8675e-05,-1.063e-05,0.0,0 STARLINK-4502,1 53557U 22101AG  22332.43964093 -.00001063  00000-0 -48675-4 0  9997,2 53557  53.2214  38.7761 0001855  49.3005 310.8148 15.08838736 15567,6917.884,95.438,541.033,538.466,0.0
53557.0,STARLINK-4502,PAYLOAD,2022-11-28 12:08:28,15.0884019,0.0001879,53.2215,38.4792,48.5791,311.5363,-4.6576e-05,-1.029e-05,0.0,0 STARLINK-4502,1 53557U 22101AG  22332.50588005 -.00001029  00000-0 -46576-4 0  9990,2 53557  53.2215  38.4792 0001879  48.5791 311.5363 15.08840190 16226,6917.88,95.438,541.045,538.445,0.0
53557.0,STARLINK-4502,PAYLOAD,2022-11-28 23:16:09,15.08844089,0.0002066,53.2215,36.3986,38.4591,321.6548,8.211799999999999e-05,1.019e-05,0.0,0 STARLINK-4502,1 53557U 22101AG  22332.96955382  .00001019  00000-0  82118-4 0  9995,2 53557  53.2215  36.3986 0002066  38.4591 321.6548 15.08844089 15646,6917.868,95.437,541.1619999999998,538.304,0.0
53557.0,STARLINK-4502,PAYLOAD,2022-11-29 10:23:51,15.08838512,0.0002145,53.2215,34.3173,38.5529,321.5616,0.00019123,2.756e-05,0.0,0 STARLINK-4502,1 53557U 22101AG  22333.43323459  .00002756  00000-0  19123-3 0  9996,2 53557  53.2215  34.3173 0002145  38.5529 321.5616 15.08838512 16361,6917.885,95.438,541.234,538.266,0.0
53557.0,STARLINK-4502,PAYLOAD,2022-11-29 11:59:14,15.08852523,0.0002063,53.2216,34.0199,33.5252,326.587,-0.00013389,-2.419e-05,0.0,0 STARLINK-4502,1 53557U 22101AG  22333.49947451 -.00002419  00000-0 -13389-3 0  9992,2 53557  53.2216  34.0199 0002063  33.5252 326.5870 15.08852523 16370,6917.842,95.437,541.134,538.28,0.0
53557.0,STARLINK-4502,PAYLOAD,2022-11-29 23:06:57,15.08836797,0.0002074,53.2217,31.939,35.3072,324.8058,0.00010486,1.381e-05,0.0,0 STARLINK-4502,1 53557U 22101AG  22333.96315991  .00001381  00000-0  10486-3 0  9992,2 53557  53.2217  31.9390 0002074  35.3072 324.8058 15.08836797 15791,6917.89,95.438,541.19,538.32,0.0
